P/2015 X3 (PANSTARRS),e,24.4004,77.2794,306.7159,5.006240,0.0879907,0.43971976,214.6344,04/15.0/2022,2000,g 15.0,4.0
# From MPC119995
C/2015 X5 (PANSTARRS),h,12/27.8770/2017,124.3121,122.3280,27.5738,1.000053,6.794488,2000,7.5,4.0
# From MPC115881
P/2015 X6 (PANSTARRS),e,4.5645,106.9398,329.8087,2.753105,0.2157595,0.17285126,117.5844,04/15.0/2022,2000,g 16.0,4.0
# From MPEC 2021-P47
C/2016 A1 (PANSTARRS),e,121.2085,128.1913,10.1354,51470,0.0000001,0.99989668,0.0000,11/21.3764/2017,2000,g  6.0,4.0
# From MPC100282
P/2016 A2 (Christensen),e,26.4029,291.6176,141.3233,4.753265,0.0951078,0.27063243,237.5085,04/15.0/2022,2000,g 11.5,4.0
# From MPC115881
P/2016 A3 (PANSTARRS),e,8.5103,187.2347,340.9844,7.884260,0.0445208,0.38617103,80.7577,04/15.0/2022,2000,g 10.0,4.0
# From MPC102098
P/2016 A7 (PANSTARRS),e,16.6055,221.4971,352.5753,5.034131,0.0872604,0.56448255,195.8557,04/15.0/2022,2000,g 16.0,4.0
# From MPC109143
P/2016 BA14 (PANSTARRS),e,18.8949,180.5193,351.9201,3.025535,0.1872840,0.66505834,56.5028,04/15.0/2022,2000,g 21.0,4.0
# From MPC110494
C/2016 E1 (PANSTARRS),h,06/03.8980/2017,131.8700,233.1256,47.4560,1.006208,8.174024,2000,6.5,4.0
# From MPEC 2021-P47
P/2016 G1 (PANSTARRS),e,10.9714,204.0227,111.1126,2.582274,0.2375202,0.21095848,92.4305,04/15.0/2022,2000,g 14.0,4.0
# From MPEC 2017-D91
P/2016 J1-A (PANSTARRS),e,14.3288,199.8117,46.9932,3.172032,0.1744607,0.22772302,9.2948,04/15.0/2022,2000,g 16.5,4.0
# From MPEC 2017-A77
P/2016 J1-B (PANSTARRS),e,14.3315,199.8166,46.8842,3.171663,0.1744912,0.22757368,9.4343,04/15.0/2022,2000,g 17.0,4.0
# From MPEC 2022-ED3
C/2016 M1 (PANSTARRS),e,90.9297,92.2397,209.9339,93629,0.0000000,0.99997635,0.0000,08/10.5525/2018,2000,g  5.0,4.0
# From MPEC 2021-N06
C/2016 N4 (MASTER),e,72.6515,353.9902,55.9529,4955,0.0000028,0.99935488,0.0000,09/17.3430/2017,2000,g  8.5,4.0
# From MPEC 2021-P47
C/2016 N6 (PANSTARRS),e,105.8470,298.9588,162.6319,1092,0.0000273,0.99756305,0.0000,07/17.7302/2018,2000,g  7.0,4.0
# From MPC102099
P/2016 P1 (PANSTARRS),e,24.4531,319.5671,270.1966,3.195084,0.1725761,0.28926375,53.2261,04/15.0/2022,2000,g 15.0,4.0
# From MPEC 2022-GA9
C/2016 Q2 (PANSTARRS),h,05/12.1646/2021,109.3875,322.2993,84.5465,1.001981,7.081961,2000,6.0,4.0
# From MPC102955
C/2016 Q4 (Kowalski),e,7.2509,271.2966,99.5670,16.98999,0.0140739,0.58262481,21.6167,04/15.0/2022,2000,g  7.0,4.0
# From MPEC 2021-N06
C/2016 R2 (PANSTARRS),e,58.2825,80.5340,33.1118,478.8829,0.0000941,0.99457298,0.0000,05/09.0015/2018,2000,g  7.0,4.0
# From MPC109144
P/2016 R4 (Gibbs),e,10.8778,168.2618,174.0905,5.332102,0.0800491,0.47640122,167.4232,04/15.0/2022,2000,g 12.5,4.0
# From MPC105543
P/2016 S1 (PANSTARRS),e,94.7119,227.6117,273.2736,8.277452,0.0413865,0.71006072,76.8091,04/15.0/2022,2000,g 12.0,4.0
# From MPC110082
C/2016 T3 (PANSTARRS),e,22.7029,271.6829,194.5840,129.2140,0.0006710,0.97956173,0.0000,09/06.6426/2017,2000,g 10.5,4.0
# From MPC106345
P/2016 WM48 (Lemmon),e,117.5296,59.9187,36.1139,8.166594,0.0422321,0.78355781,79.2602,04/15.0/2022,2000,g 15.0,4.0
# From MPEC 2021-P47
C/2016 X1 (Lemmon),e,26.4545,256.3703,224.4745,1267,0.0000219,0.99403441,0.0000,04/27.8597/2019,2000,g  6.0,4.0
# From MPC108594
C/2017 A1 (PANSTARRS),e,49.8138,121.0155,1.9383,74.99914,0.0015175,0.96953446,2.7239,04/15.0/2022,2000,g 13.0,4.0
# From MPC114598
C/2017 AB5 (PANSTARRS),e,32.4566,42.6089,78.2922,2327,0.0000088,0.99604300,0.0000,02/14.4739/2018,2000,g  5.5,4.0
# From MPEC 2022-A21
C/2017 B3 (LINEAR),h,02/02.0637/2019,54.1601,2.1759,284.8186,1.000831,3.926510,2000,6.0,4.0
# From MPC103847
P/2017 B4 (PANSTARRS),e,20.0584,121.4578,11.0197,4.410520,0.1064068,0.36495152,359.9130,01/05.0/2017,2000,g 14.5,4.0
# From MPC104793
P/2017 D1 (Fuls),e,20.7609,82.1827,7.9694,4.828805,0.0928848,0.43652094,197.1221,04/15.0/2022,2000,g 14.0,4.0
# From MPC112391
C/2017 D2 (Barros),e,31.2576,330.9516,334.6344,12677,0.0000007,0.99980295,0.0000,07/14.6494/2017,2000,g 11.0,4.0
# From MPC114598
C/2017 D3 (ATLAS),h,04/27.4511/2017,125.5910,186.7173,340.8066,1.002047,4.965344,2000,8.0,4.0
# From MPC110495
P/2017 D4 (PANSTARRS),e,10.5398,264.9389,212.1831,7.553866,0.0474734,0.62855801,97.2408,04/15.0/2022,2000,g 13.0,4.0
# From MPC106346
C/2017 E1 (Borisov),h,04/10.3968/2017,14.5708,142.5734,152.7888,1.003251,0.907254,2000,14.0,4.0
# From MPEC 2021-P47
C/2017 E3 (PANSTARRS),h,06/07.2768/2017,70.6611,220.7943,334.4586,1.005877,5.936040,2000,6.5,4.0
# From MPC105239
C/2017 E4 (Lovejoy),h,04/23.3169/2017,87.9717,222.7826,87.0903,1.001483,0.492027,2000,17.0,4.0
# From MPC111769
C/2017 F1 (Lemmon),h,11/28.7665/2017,146.4612,158.7883,64.7227,1.001983,4.497808,2000,10.5,4.0
# From MPC114598
C/2017 F2 (PANSTARRS),h,11/26.0896/2017,42.5488,38.6967,134.9416,1.002214,6.927540,2000,7.5,4.0
# From MPC104794
P/2017 G1 (PANSTARRS),e,4.7795,249.6505,224.4230,7.279346,0.0501840,0.65322345,109.3605,04/15.0/2022,2000,g 13.5,4.0
# From MPC108595
P/2017 G2 (PANSTARRS),e,47.9532,79.8097,105.4772,8.056463,0.0431010,0.64760420,76.2941,04/15.0/2022,2000,g 13.0,4.0
# From MPEC 2021-P47
C/2017 G3 (PANSTARRS),e,159.0321,279.4535,73.0169,311.6567,0.0001791,0.99171710,0.0000,04/16.4479/2017,2000,g 14.0,4.0
# From MPC115882
C/2017 K1 (PANSTARRS),h,03/17.9797/2018,154.0207,225.7121,4.4351,1.003374,7.286891,2000,7.0,4.0
# From MPEC 2022-GA9
C/2017 K2 (PANSTARRS),h,12/19.6846/2022,87.5597,88.2361,236.1943,1.000750,1.797033,2000,1.5,4.0
# From MPEC 2021-N06
P/2017 K3 (Gasparovic),e,4.2730,354.2874,253.4452,5.584100,0.0746920,0.57957636,133.0579,04/15.0/2022,2000,g 14.5,4.0
# From MPC114598
C/2017 K4 (ATLAS),e,16.6711,298.8951,15.3218,28.66625,0.0064217,0.90728571,10.0022,04/15.0/2022,2000,g 10.0,4.0
# From MPEC 2021-P47
C/2017 K5 (PANSTARRS),h,03/27.2833/2020,82.2396,102.3755,172.0558,1.005486,7.683006,2000,5.0,4.0
# From MPC114599
C/2017 K6 (Jacques),e,57.2285,84.9468,303.7779,1170,0.0000246,0.99829401,0.0000,01/03.8697/2018,2000,g 11.0,4.0
# From MPEC 2021-P47
C/2017 M3 (PANSTARRS),e,77.5920,7.0402,110.2720,166.9068,0.0004571,0.97213466,0.0000,04/28.3863/2017,2000,g 10.5,4.0
# From MPEC 2021-Y10
C/2017 M4 (ATLAS),h,01/17.9616/2019,105.6461,65.9300,167.6180,1.001394,3.253414,2000,6.0,4.0
# From MPC118841
C/2017 M5 (TOTAS),h,06/04.4579/2018,15.8670,216.2890,92.8350,1.005389,6.000952,2000,6.5,4.0
# From MPC114599
C/2017 O1 (ASASSN),e,39.9703,25.7230,20.8374,370.0796,0.0001384,0.99597020,0.0000,10/15.5918/2017,2000,g 11.0,4.0
# From MPC114599
P/2017 P1 (PANSTARRS),e,7.6914,221.3792,122.5662,7.907447,0.0443251,0.31102050,61.7557,04/15.0/2022,2000,g 10.0,4.0
# From MPC114599
C/2017 P2 (PANSTARRS),e,50.0482,165.4560,132.4806,2523,0.0000078,0.99902009,0.0000,12/06.2191/2017,2000,g 10.0,4.0
# From MPC108595
C/2017 S2 (PANSTARRS),e,12.6706,62.3400,306.0848,20.62765,0.0105203,0.82482736,17.7627,04/15.0/2022,2000,g 13.0,4.0
# From MPC114599
C/2017 S3 (PANSTARRS),h,08/16.3937/2018,99.2083,171.3133,255.8548,1.000085,0.206346,2000,12.9,4.0
# From MPC109591
C/2017 S6 (Catalina),h,02/26.1391/2018,152.8665,131.0751,134.9409,1.000825,1.549508,2000,12.5,4.0
# From MPC114599
C/2017 S7 (Lemmon),e,124.2244,262.7374,187.5164,6675,0.0000018,0.99886042,0.0000,05/23.8352/2017,2000,g  7.0,4.0
# From MPC114599
P/2017 S8 (PANSTARRS),e,29.8578,191.5257,254.8078,2.779732,0.2126668,0.39103312,327.1842,04/15.0/2022,2000,g 16.0,4.0
# From MPC107050
P/2017 S9 (PANSTARRS),e,14.1438,146.2234,237.6574,3.154459,0.1759207,0.30547178,303.9728,04/15.0/2022,2000,g 17.0,4.0
# From MPC114600
C/2017 T1 (Heinze),e,96.8841,102.4618,97.0078,11306,0.0000008,0.99994823,0.0000,02/20.7480/2018,2000,g 14.5,4.0
# From MPEC 2021-Y10
C/2017 T2 (PANSTARRS),e,57.2395,64.3873,92.9731,1870,0.0000122,0.99913606,0.0000,05/04.8152/2020,2000,g  5.0,4.0
# From MPC114600
C/2017 T3 (ATLAS),e,88.1831,230.1714,246.8191,1184,0.0000242,0.99930366,0.0000,07/18.9162/2018,2000,g 10.0,4.0
# From MPC115882
P/2017 TW13 (Lemmon),e,44.8496,322.2879,119.9249,7.137827,0.0516839,0.70987393,72.0342,04/15.0/2022,2000,g 15.0,2.0
# From MPC114600
C/2017 U2 (Fuls),e,95.3890,149.7094,147.8670,2733,0.0000069,0.99754343,0.0000,08/28.1775/2017,2000,g  9.0,4.0
# From MPC114600
P/2017 U3 (PANSTARRS),e,15.9189,165.1114,296.4779,4.926794,0.0901275,0.09912479,98.9347,04/15.0/2022,2000,g 11.0,4.0
# From MPEC 2021-P47
C/2017 U4 (PANSTARRS),h,09/22.3183/2018,158.2068,245.9244,158.9824,1.000617,7.721072,2000,7.0,4.0
# From MPC114600
C/2017 U5 (PANSTARRS),e,18.9788,163.0866,261.9938,16.89206,0.0141965,0.74446690,22.4014,04/15.0/2022,2000,g 12.0,4.0
# From MPEC 2022-GA9
C/2017 U7 (PANSTARRS),h,09/14.6631/2019,142.6000,276.2513,326.3712,1.000861,6.426050,2000,8.3,2.0
# From MPC114600
C/2017 W2 (Leonard),e,98.2024,312.8287,168.9225,13.62453,0.0195984,0.71030587,31.8752,04/15.0/2022,2000,g 11.0,4.0
# From MPC114601
P/2017 W3 (Gibbs),e,18.1667,210.2383,327.8460,7.836791,0.0449259,0.50658751,67.7199,04/15.0/2022,2000,g 10.5,4.0
# From MPEC 2021-R75
C/2017 X1 (PANSTARRS),e,31.3205,251.1403,283.2162,31.12319,0.0056765,0.85001859,7.9505,04/15.0/2022,2000,g 10.0,4.0
# From MPC117069
C/2017 Y1 (PANSTARRS),e,55.2585,307.5076,134.2502,1768,0.0000133,0.99790396,0.0000,08/31.5152/2017,2000,g 11.5,4.0
# From MPEC 2022-ED3
C/2017 Y2 (PANSTARRS),h,11/04.9600/2020,128.4227,65.9981,147.9224,1.001039,4.632883,2000,15.0,4.0
# From MPC111770
P/2017 Y3 (Leonard),e,27.5576,153.8431,67.6066,9.832597,0.0319670,0.86969806,48.7631,04/15.0/2022,2000,g 16.5,4.0
# From MPC114601
C/2018 A1 (PANSTARRS),e,53.6136,336.6590,96.1970,25.10341,0.0078362,0.90404223,12.8267,04/15.0/2022,2000,g 12.5,4.0
# From MPEC 2021-P47
C/2018 A3 (ATLAS),e,139.5372,194.2930,86.3614,400.1109,0.0001231,0.99181066,0.0000,01/11.7761/2019,2000,g  8.5,4.0
# From MPC114601
C/2018 A4 (PANSTARRS),e,3.1494,97.6042,355.9757,12.18609,0.0231690,0.80353757,33.0666,04/15.0/2022,2000,g 14.0,4.0
# From MPC109147
P/2018 A5 (PANSTARRS),e,23.5949,87.8039,359.5032,5.630803,0.0737647,0.52283465,122.7939,04/15.0/2022,2000,g 15.0,4.0
# From MPEC 2022-C56
